LEMUR-2-AMANDA-SVANTE   
1 48269U 21034B   26068.77637527  .00030872  00000+0  11134-2 0  9996
2 48269  97.5829 144.8625 0002703 205.4721 154.6385 15.28469003265849
STARLINK-31850          
1 59903U 24100U   26068.51703459 -.00000093  00000+0  61506-5 0  9994
2 59903  42.9977 126.0864 0001005 264.5512  95.5225 15.27564513101070
